{
  "norad_id": 68403,
  "name": "STARLINK-37218",
  "history": [
    {
      "epoch": "2026-04-02T18:00:01.999296Z",
      "apogee_km": 272.17786619464096,
      "perigee_km": 270.0288317138584,
      "latitude_deg": -18.670777181566788,
      "longitude_deg": -49.99938162177179,
      "height_km": 279.1818063574309,
      "semi_major_axis_km": 6649.240348954249,
      "eccentricity": 0.0001616,
      "inclination_deg": 97.2814,
      "raan_deg": 233.5637,
      "arg_perigee_deg": 71.1878,
      "mean_anomaly_deg": 127.388,
      "mean_motion_rev_day": 16.01196804
    }
  ]
}