STARLINK-37218          
1 68403U 26063Z   26092.75002314 -.01865503  10587-2 -34726-2 0  9996
2 68403  97.2814 233.5637 0001616  71.1878 127.3880 16.01196804  2321
